[Satellite]
VERSION=1.1
NAME=CZ-3B R/B
NICKNAME=CZ-3B R/B
TLE1=1 44638U 19070B   19316.82318928  .00018597  12885-5  72761-3 0  9998
TLE2=2 44638  26.9340 243.8791 7259171 195.4925 117.1599  2.34814600   610
STATUS=0
